{
    "type": "FeatureCollection",
    "name": "Baeder",
    "crs": {
        "type": "name",
        "properties": {
            "name": "urn:ogc:def:crs:OGC:1.3:CRS84"
        }
    },
    "features": [
        {
            "type": "Feature",
            "properties": {
                "NAME": "Hallenbad Hiltrup",
                "LINK1_TXT": "weitere Informationen",
                "LINK1": "https:\/\/www.stadt-muenster.de\/sportamt\/baeder\/hallenbad-hiltrup.html",
                "opening_hours": "",
                "RECHTSWERT": 406456.0,
                "HOCHWERT": 5750854.0
            },
            "geometry": {
                "type": "Point",
                "coordinates": [
                    7.640368361790217,
                    51.900579721168953
                ]
            }
        },
        {
            "type": "Feature",
            "properties": {
                "NAME": "Hallenbad Mitte",
                "LINK1_TXT": "weitere Informationen",
                "LINK1": "https:\/\/www.stadt-muenster.de\/sportamt\/baeder\/hallenbad-mitte.html",
                "opening_hours": "",
                "RECHTSWERT": 404910.0,
                "HOCHWERT": 5757495.0
            },
            "geometry": {
                "type": "Point",
                "coordinates": [
                    7.616069512752514,
                    51.960010283570995
                ]
            }
        },
        {
            "type": "Feature",
            "properties": {
                "NAME": "Hallenbad Kinderhaus",
                "LINK1_TXT": "weitere Informationen",
                "LINK1": "https:\/\/www.stadt-muenster.de\/sportamt\/baeder\/hallenbad-kinderhaus.html",
                "RECHTSWERT": 404215.0,
                "HOCHWERT": 5761497.0
            },
            "geometry": {
                "type": "Point",
                "coordinates": [
                    7.604840642806854,
                    51.995862272158483
                ]
            }
        },
        {
            "type": "Feature",
            "properties": {
                "NAME": "Hallenbad Ost",
                "LINK1_TXT": "weitere Informationen",
                "LINK1": "https:\/\/www.stadt-muenster.de\/sportamt\/baeder\/hallenbad-ost.html",
                "opening_hours": "Mo off; Tu 06:30-22:00; We off; Th 06:30-22:00; Fr 10:00-22:00; Sa 10:00-17:00; Su 09:00-16:00",
                "RECHTSWERT": 407901.0,
                "HOCHWERT": 5757326.0
            },
            "geometry": {
                "type": "Point",
                "coordinates": [
                    7.659632460386994,
                    51.958994706845999
                ]
            }
        },
        {
            "type": "Feature",
            "properties": {
                "NAME": "Hallenbad Roxel",
                "LINK1_TXT": "weitere Informationen",
                "LINK1": "https:\/\/www.stadt-muenster.de\/sportamt\/baeder\/hallenbad-roxel.html",
                "opening_hours": "Su 08:00-18:00, Mo,Th,Fr 06:30-08:00, Mo,Fr 15:00-17:00, Sa 07:00-17:00",
                "RECHTSWERT": 398743.0,
                "HOCHWERT": 5757013.0
            },
            "geometry": {
                "type": "Point",
                "coordinates": [
                    7.526488769053592,
                    51.954589173125377
                ]
            }
        },
        {
            "type": "Feature",
            "properties": {
                "NAME": "Hallenbad Wolbeck",
                "LINK1_TXT": "weitere Informationen",
                "LINK1": "https:\/\/www.stadt-muenster.de\/sportamt\/baeder\/hallenbad-wolbeck.html",
                "opening_hours": "",
                "RECHTSWERT": 411546.0,
                "HOCHWERT": 5752443.0
            },
            "geometry": {
                "type": "Point",
                "coordinates": [
                    7.713921193070832,
                    51.915694280820198
                ]
            }
        },
        {
            "type": "Feature",
            "properties": {
                "NAME": "Freibad Hiltrup",
                "LINK1_TXT": "weitere Informationen",
                "LINK1": "https:\/\/www.stadt-muenster.de\/sportamt\/baeder\/freibad-hiltrup.html",
                "opening_hours": "",
                "RECHTSWERT": 407557.0,
                "HOCHWERT": 5749568.0
            },
            "geometry": {
                "type": "Point",
                "coordinates": [
                    7.656711047738075,
                    51.889204077681768
                ]
            }
        },
        {
            "type": "Feature",
            "properties": {
                "NAME": "Freibad Coburg",
                "LINK1_TXT": "weitere Informationen",
                "LINK1": "https:\/\/www.stadt-muenster.de\/sportamt\/baeder\/freibad-coburg.html",
                "opening_hours": "Mo,Tu,Th,Fr 07:00-20:00; We 12:00-20:00; Sa,Su,PH 09:00-20:00; Oct-Apr off; 2025 May 01 12:00-20:00",
                "RECHTSWERT": 404525.0,
                "HOCHWERT": 5759604.0
            },
            "geometry": {
                "type": "Point",
                "coordinates": [
                    7.609881517919044,
                    51.978900753428626
                ]
            }
        },
        {
            "type": "Feature",
            "properties": {
                "NAME": "Sportbad Südmühle",
                "LINK1_TXT": "",
                "LINK1": "",
                "RECHTSWERT": 410703.0,
                "HOCHWERT": 5761848.0
            },
            "geometry": {
                "type": "Point",
                "opening_hours": "",
                "coordinates": [
                    7.699223068526779,
                    52.000098546008523
                ]
            }
        },
        {
            "type": "Feature",
            "properties": {
                "NAME": "Bürgerbad Handorf",
                "LINK1_TXT": "",
                "LINK1": "",
                "RECHTSWERT": 411174.0,
                "HOCHWERT": 5760618.0
            },
            "geometry": {
                "type": "Point",
                "opening_hours": "",
                "coordinates": [
                    7.706400878809887,
                    51.989118032646424
                ]
            }
        },
        {
            "type": "Feature",
            "properties": {
                "NAME": "Freibad Stapelskotten",
                "LINK1_TXT": "weitere Informationen",
                "LINK1": "https:\/\/www.stadt-muenster.de\/sportamt\/baeder\/freibad-stapelskotten.html",
                "opening_hours": "",
                "RECHTSWERT": 410017.0,
                "HOCHWERT": 5756021.0
            },
            "geometry": {
                "type": "Point",
                "coordinates": [
                    7.690760713471589,
                    51.947610945979179
                ]
            }
        },
        {
            "type": "Feature",
            "properties": {
                "NAME": "Südbad",
                "LINK1_TXT": "weitere Informationen",
                "LINK1": "https:\/\/www.stadt-muenster.de\/sportamt\/baeder\/suedbad.html",
                "opening_hours": "Mo 06:30-09:00,16:00-18:00; Tu,Th 06:30-08:00; We 15:00-21:00; Fr 06:30-08:00,15:00-21:00; Sa,Su,Ph off",
                "RECHTSWERT": 404708.0,
                "HOCHWERT": 5755197.0
            },
            "geometry": {
                "type": "Point",
                "coordinates": [
                    7.613767678299615,
                    51.939320355515441
                ]
            }
        }
    ]
}