{
"type": "FeatureCollection",
"name": "Kino",
"crs": { "type": "name", "properties": { "name": "urn:ogc:def:crs:OGC:1.3:CRS84" } },
"features": [
{ "type": "Feature", "properties": { "NAME": "Cineplex", "STR_NAME": "Albersloher Weg", "HSNR": 14.0, "HSNR_ZUS": "", "PLZ": 48155.0, "ORT": "Münster", "RECHTSWERT": 406311.0, "HOCHWERT": 5756398.0, "HOMEPAGE": "https:\/\/www.cineplex.de\/programm\/muenster\/","opening_hours": "Mo-Mi 15:00-21:15; Do-Fr 15:00-23:15; Sa 12:15-23:15; So 10:15-21:15"}, "geometry": { "type": "Point", "coordinates": [ 7.636752369237026, 51.950387760745116 ] } },
{ "type": "Feature", "properties": { "NAME": "Schloßtheater", "STR_NAME": "Melchersstraße", "HSNR": 81.0, "HSNR_ZUS": "", "PLZ": 48149.0, "ORT": "Münster", "RECHTSWERT": 404799.0, "HOCHWERT": 5758738.0, "HOMEPAGE": "https:\/\/www.cineplex.de\/infos\/das-schlosstheater\/1161\/muenster\/","opening_hours": "Mo-Mi 14:00-22:00; Do-Fr 14:00-00:00; Sa 12:00-00:00; So 10:00-22:00" }, "geometry": { "type": "Point", "coordinates": [ 7.614109926369751, 51.971163844592702 ] } },
{ "type": "Feature", "properties": { "NAME": "Cinema", "STR_NAME": "Warendorfer Straße", "HSNR": 45.0, "HSNR_ZUS": "", "PLZ": 48145.0, "ORT": "Münster", "RECHTSWERT": 406750.0, "HOCHWERT": 5757686.0, "HOMEPAGE": "http:\/\/cinema-muenster.de\/","opening_hours": "Mo-Di 17:30+; Mi-Sa 15:00+; So 10:45+" }, "geometry": { "type": "Point", "coordinates": [ 7.642788636646727, 51.962038725121765 ] } }
]
}
