{
"type": "FeatureCollection",
"name": "museen_mit_opening_hours",
"crs": { "type": "name", "properties": { "name": "urn:ogc:def:crs:OGC:1.3:CRS84" } },
"features": [
{ "type": "Feature", "properties": { "NAME": "Museum Haus Rüschhaus", "STR_NAME": "Am Rüschhaus", "HSNR": 81.0, "HSNR_ZUS": "", "PLZ": 48161.0, "ORT": "Münster", "RECHTSWERT": 400507.0, "HOCHWERT": 5760424.0, "HOMEPAGE": "http://www.burg-huelshoff.de/", "opening_hours_osm": "Mi-Fr: 13:30-18:00; Sa-So:10:00-18:00; Mo-Di:geschlossen"   }, "geometry": { "type": "Point", "coordinates": [ 7.551161325308003, 51.985566069815896 ] } },
{ "type": "Feature", "properties": { "NAME": "Kunsthaus Kannen", "STR_NAME": "Alexianerweg", "HSNR": 9.0, "HSNR_ZUS": "", "PLZ": 48163.0, "ORT": "Münster", "RECHTSWERT": 401240.0, "HOCHWERT": 5748261.0, "HOMEPAGE": "https://www.kunsthaus-kannen.de/ausstellungen/", "opening_hours_osm": "Mo-So:13:00-17:00" }, "geometry": { "type": "Point", "coordinates": [ 7.565322925883247, 51.876372951263065 ] } },
{ "type": "Feature", "properties": { "NAME": "Karnevalsmuseum", "STR_NAME": "Heumannsweg", "HSNR": 127.0, "HSNR_ZUS": "", "PLZ": 48155.0, "ORT": "Münster", "RECHTSWERT": 408563.0, "HOCHWERT": 5755673.0, "HOMEPAGE": "https://www.paohlbuerger.de/", "opening_hours_osm": "unregelmäßig" }, "geometry": { "type": "Point", "coordinates": [ 7.669703903609868, 51.944245799215217 ] } },
{ "type": "Feature", "properties": { "NAME": "LWL-Museum für Kunst und Kultur", "STR_NAME": "Domplatz", "HSNR": 10.0, "HSNR_ZUS": "", "PLZ": 48143.0, "ORT": "Münster", "RECHTSWERT": 405509.0, "HOCHWERT": 5757706.0, "HOMEPAGE": "https://www.lwl.org/LWL/Kultur/museumkunstkultur/", "opening_hours_osm": "Di-So:10:00-18:00; Mo:geschlossen" }, "geometry": { "type": "Point", "coordinates": [ 7.624726530177112, 51.962008961600063 ] } },
{ "type": "Feature", "properties": { "NAME": "Archäologisches Museum", "STR_NAME": "Domplatz", "HSNR": 20.0, "HSNR_ZUS": "", "PLZ": 48143.0, "ORT": "Münster", "RECHTSWERT": 405446.0, "HOCHWERT": 5757716.0, "HOMEPAGE": "https://www.uni-muenster.de/ArchaeologischesMuseum/", "opening_hours_osm": "Mo-Fr:8:00-20:00; Sa:10:00-13:00; So:geschlossen" }, "geometry": { "type": "Point", "coordinates": [ 7.623807126619139, 51.962088134911397 ] } },
{ "type": "Feature", "properties": { "NAME": "Porzellanmuseum", "STR_NAME": "Gasselstiege", "HSNR": 33.0, "HSNR_ZUS": "", "PLZ": 48159.0, "ORT": "Münster", "RECHTSWERT": 404474.0, "HOCHWERT": 5758952.0, "HOMEPAGE": "http://www.stadtheimatbund-muenster.de/", "opening_hours_osm": "jeden 3. Sonntag von 16:30 - 19:00" }, "geometry": { "type": "Point", "coordinates": [ 7.609320682328395, 51.973031587263286 ] } },
{ "type": "Feature", "properties": { "NAME": "Eisenbahnmuseum der KG Pängelanton", "STR_NAME": "Erbdrostenweg", "HSNR": 2.0, "HSNR_ZUS": "", "PLZ": 48167.0, "ORT": "Münster", "RECHTSWERT": 408277.0, "HOCHWERT": 5754228.0, "HOMEPAGE": "http://www.paengelanton.de", "opening_hours_osm": "So:11:00-12:30" }, "geometry": { "type": "Point", "coordinates": [ 7.665929530238545, 51.931210171254129 ] } },
{ "type": "Feature", "properties": { "NAME": "Kunsthalle Münster", "STR_NAME": "Hafenweg", "HSNR": 28.0, "HSNR_ZUS": "", "PLZ": 48155.0, "ORT": "Münster", "RECHTSWERT": 406825.0, "HOCHWERT": 5756567.0, "HOMEPAGE": "https://www.stadt-muenster.de/kunsthalle/ausstellungen.html", "opening_hours_osm": "Di-So:12:00-18:00, Mo:geschlossen" }, "geometry": { "type": "Point", "coordinates": [ 7.644183380011532, 51.951993163162122 ] } },
{ "type": "Feature", "properties": { "NAME": "Villa ten Hompel", "STR_NAME": "Kaiser-Wilhelm-Ring", "HSNR": 28.0, "HSNR_ZUS": "a", "PLZ": 48145.0, "ORT": "Münster", "RECHTSWERT": 407018.0, "HOCHWERT": 5758147.0, "HOMEPAGE": "https://www.stadt-muenster.de/villa-ten-hompel/startseite.html", "opening_hours_osm": "Mi-Do:18:00-21:00; Fr:geschlossen; Sa-So:14:00-17:00; Mo:18:00-21:00" }, "geometry": { "type": "Point", "coordinates": [ 7.646563256879447, 51.966227311028767 ] } },
{ "type": "Feature", "properties": { "NAME": "Wewerka Pavillion", "STR_NAME": "Kardinal-von-Galen-Ring", "HSNR": 0.0, "HSNR_ZUS": "", "PLZ": 48149.0, "ORT": "Münster", "RECHTSWERT": 404117.0, "HOCHWERT": 5756704.0, "HOMEPAGE": "http://www.wewerka-pavillon.de", "opening_hours_osm":"unregelmäßig" }, "geometry": { "type": "Point", "coordinates": [ 7.604752704682749, 51.952764307223653 ] } },
{ "type": "Feature", "properties": { "NAME": "Lepramuseum", "STR_NAME": "Kinderhaus", "HSNR": 15.0, "HSNR_ZUS": "", "PLZ": 48159.0, "ORT": "Münster", "RECHTSWERT": 404673.0, "HOCHWERT": 5761943.0, "HOMEPAGE": "https://www.lepramuseum.de/", "opening_hours_osm":"unregelmäßig" }, "geometry": { "type": "Point", "coordinates": [ 7.611385485300695, 51.999949875624026 ] } },
{ "type": "Feature", "properties": { "NAME": "Heimatmuseum Kinderhaus", "STR_NAME": "Kinderhaus", "HSNR": 15.0, "HSNR_ZUS": "", "PLZ": 48159.0, "ORT": "Münster", "RECHTSWERT": 404696.0, "HOCHWERT": 5761950.0, "HOMEPAGE": "https://www.heimatmuseum-kinderhaus.de/", "opening_hours_osm":"unregelmäßig" }, "geometry": { "type": "Point", "coordinates": [ 7.611718469899428, 52.000016742322551 ] } },
{ "type": "Feature", "properties": { "NAME": "Bibelmuseum", "STR_NAME": "Pferdegasse", "HSNR": 1.0, "HSNR_ZUS": "", "PLZ": 48143.0, "ORT": "Münster", "RECHTSWERT": 405424.0, "HOCHWERT": 5757627.0, "HOMEPAGE": "https://www.uni-muenster.de/Bibelmuseum/", "opening_hours_osm": "Di-So:10:00-18:00; Mo:geschlossen" }, "geometry": { "type": "Point", "coordinates": [ 7.623511533074449, 51.96128442350021 ] } },
{ "type": "Feature", "properties": { "NAME": "Geomuseum", "STR_NAME": "Pferdegasse", "HSNR": 3.0, "HSNR_ZUS": "", "PLZ": 48143.0, "ORT": "Münster", "RECHTSWERT": 405401.0, "HOCHWERT": 5757652.0, "HOMEPAGE": "https://www.uni-muenster.de/Geomuseum/", "opening_hours_osm": "Di-So:10:00-18:00; Mo:geschlossen" }, "geometry": { "type": "Point", "coordinates": [ 7.623170002794198, 51.961505221072237 ] } },
{ "type": "Feature", "properties": { "NAME": "Friedenssaal", "STR_NAME": "Prinzipalmarkt", "HSNR": 10.0, "HSNR_ZUS": "", "PLZ": 48143.0, "ORT": "Münster", "RECHTSWERT": 405740.0, "HOCHWERT": 5757657.0, "HOMEPAGE": "https://www.stadt-muenster.de/tourismus/kunst-und-kultur/museen/friedenssaal.html", "opening_hours_osm": "Di-Fr:10:00-17:00, Sa-So:10:00-16:00, Mo:geschlossen" }, "geometry": { "type": "Point", "coordinates": [ 7.628101034732659, 51.961607740426842 ] } },
{ "type": "Feature", "properties": { "NAME": "LWL-Museum für Naturkunde", "STR_NAME": "Sentruper Straße", "HSNR": 285.0, "HSNR_ZUS": "", "PLZ": 48161.0, "ORT": "Münster", "RECHTSWERT": 403183.0, "HOCHWERT": 5756346.0, "HOMEPAGE": "https://www.lwl-naturkundemuseum-muenster.de/de/", "opening_hours_osm": "Di-So:09:00-18:00, Mo:geschlossen" }, "geometry": { "type": "Point", "coordinates": [ 7.591266817948692, 51.949384681945176 ] } },
{ "type": "Feature", "properties": { "NAME": "Planetarium", "STR_NAME": "Sentruper Straße", "HSNR": 285.0, "HSNR_ZUS": "", "PLZ": 48161.0, "ORT": "Münster", "RECHTSWERT": 403180.0, "HOCHWERT": 5756360.0, "HOMEPAGE": "https://www.lwl-naturkundemuseum-muenster.de/de/planetarium/", "opening_hours_osm": "Di-So:09:00-18:00, Mo:geschlossen" }, "geometry": { "type": "Point", "coordinates": [ 7.591219237083625, 51.949509996172495 ] } },
{ "type": "Feature", "properties": { "NAME": "Westfälisches Pferdemuseum", "STR_NAME": "Sentruper Straße", "HSNR": 311.0, "HSNR_ZUS": "", "PLZ": 48161.0, "ORT": "Münster", "RECHTSWERT": 402922.0, "HOCHWERT": 5756168.0, "HOMEPAGE": "https://www.pferdemuseum.de/", "opening_hours_osm": "Mo-So:09:00-18:00" }, "geometry": { "type": "Point", "coordinates": [ 7.587520662227776, 51.947739272628837 ] } },
{ "type": "Feature", "properties": { "NAME": "Stadtmuseum", "STR_NAME": "Salzstraße", "HSNR": 28.0, "HSNR_ZUS": "", "PLZ": 48143.0, "ORT": "Münster", "RECHTSWERT": 406076.0, "HOCHWERT": 5757546.0, "HOMEPAGE": "https://www.stadt-muenster.de/museum/aktuelles.html", "opening_hours_osm": "Di-Fr:10:00-18:00, Sa-So:11:00-18:00, Mo:geschlossen" }, "geometry": { "type": "Point", "coordinates": [ 7.633020163923101, 51.960666885624697 ] } },
{ "type": "Feature", "properties": { "NAME": "Mühlenhof-Freilichtmuseum", "STR_NAME": "Theo-Breider-Weg", "HSNR": 1.0, "HSNR_ZUS": "", "PLZ": 48149.0, "ORT": "Münster", "RECHTSWERT": 403643.0, "HOCHWERT": 5756388.0, "HOMEPAGE": "https://www.muehlenhof-muenster.org/", "opening_hours_osm": "Mo-So:10:00-18:00" }, "geometry": { "type": "Point", "coordinates": [ 7.597946090261001, 51.949842070808685 ] } },
{ "type": "Feature", "properties": { "NAME": "Kunstmuseum Pablo Picasso", "STR_NAME": "Picassoplatz", "HSNR": 1.0, "HSNR_ZUS": "", "PLZ": 48143.0, "ORT": "Münster", "RECHTSWERT": 405615.0, "HOCHWERT": 5757505.0, "HOMEPAGE": "https://www.kunstmuseum-picasso-muenster.de/home/", "opening_hours_osm": "Di-So:10:00-18:00, Mo:geschlossen" }, "geometry": { "type": "Point", "coordinates": [ 7.626324066391611, 51.960220292242148 ] } },
{ "type": "Feature", "properties": { "NAME": "Hiltruper Museum", "STR_NAME": "Zur Alten Feuerwache", "HSNR": 26.0, "HSNR_ZUS": "", "PLZ": 48165.0, "ORT": "Münster", "RECHTSWERT": 406368.0, "HOCHWERT": 5751349.0, "HOMEPAGE": "http://www.hiltruper-museum.de/", "opening_hours_osm": "So:15:00-17:00" }, "geometry": { "type": "Point", "coordinates": [ 7.638955217598741, 51.905014281920749 ] } }
]
}
