{
  "type": "FeatureCollection",
  "generator": "overpass-turbo",
  "copyright": "The data included in this document is from www.openstreetmap.org. The data is made available under ODbL.",
  "timestamp": "2025-07-28T10:46:57Z",
  "features": [
    {
      "type": "Feature",
      "properties": {
        "@id": "way/337645720",
        "access": "customers",
        "leisure": "sauna",
        "name": "Eymann Sauna",
        "opening_hours": "Mo,We-Fr 09:00-23:00; Sa,Su,PH 09:00-20:00",
        "phone": "+49 2501 5777",
        "toilets:access": "yes",
        "website": "https://www.eymann-sauna.de/",
        "wheelchair": "no"
      },
      "geometry": {
        "type": "Polygon",
        "coordinates": [
          [
            [
              7.5918083,
              51.8905284
            ],
            [
              7.5918468,
              51.8904443
            ],
            [
              7.5921523,
              51.8897767
            ],
            [
              7.5922179,
              51.8896333
            ],
            [
              7.5923427,
              51.8893606
            ],
            [
              7.5932902,
              51.8893554
            ],
            [
              7.5934089,
              51.8893547
            ],
            [
              7.5934325,
              51.8893138
            ],
            [
              7.5940196,
              51.8892986
            ],
            [
              7.5940037,
              51.8898393
            ],
            [
              7.5943764,
              51.8898299
            ],
            [
              7.5943881,
              51.889951
            ],
            [
              7.5944051,
              51.8900646
            ],
            [
              7.5944286,
              51.8901866
            ],
            [
              7.5944316,
              51.8902125
            ],
            [
              7.5944281,
              51.8902361
            ],
            [
              7.5944191,
              51.8902633
            ],
            [
              7.5944069,
              51.8902829
            ],
            [
              7.5943883,
              51.8902961
            ],
            [
              7.5943723,
              51.8903043
            ],
            [
              7.594344,
              51.8903143
            ],
            [
              7.593757,
              51.8904473
            ],
            [
              7.5936681,
              51.8898483
            ],
            [
              7.5931815,
              51.8898605
            ],
            [
              7.5930002,
              51.8906173
            ],
            [
              7.5921471,
              51.8908089
            ],
            [
              7.5920275,
              51.8908357
            ],
            [
              7.5918134,
              51.8908839
            ],
            [
              7.5918083,
              51.8905284
            ]
          ]
        ]
      },
      "id": "way/337645720"
    },
    {
      "type": "Feature",
      "properties": {
        "@id": "node/2612600884",
        "access": "yes",
        "leisure": "sauna"
      },
      "geometry": {
        "type": "Point",
        "coordinates": [
          7.5562443,
          51.9503032
        ]
      },
      "id": "node/2612600884"
    },
    {
      "type": "Feature",
      "properties": {
        "@id": "node/5653164230",
        "check_date": "2025-05-19",
        "leisure": "sauna",
        "name": "West Sauna"
      },
      "geometry": {
        "type": "Point",
        "coordinates": [
          7.611271,
          51.9676305
        ]
      },
      "id": "node/5653164230"
    }
  ]
}