{
"type": "FeatureCollection",
"name": "toiletten-mit-oz",
"crs": { "type": "name", "properties": { "name": "urn:ogc:def:crs:OGC:1.3:CRS84" } },
"features": [
{ "type": "Feature", "properties": { "Lfdnr": 2.0, "Name": "Aegidiimarkt", "Barrierefrei": "Nein", "Rechtswert": 405403.0, "Hochwert": 5757490.0, "Gv_name": "X", "Öffnungszeiten": "Montag 07:00-24:00; Dienstag 07:00-24:00; Mittwoch 07:00-24:00; Donnerstag 07:00-24:00; Freitag 07:00-24:00; Samstag 07:00-24:00; Sonntag 09:00-24:00" }, "geometry": { "type": "Point", "coordinates": [ 7.62324371853736, 51.960049437224733 ] } },
{ "type": "Feature", "properties": { "Lfdnr": 1.0, "Name": "Aasee / Hansahafen", "Barrierefrei": "Ja", "Rechtswert": 403655.0, "Hochwert": 5755666.0, "Gv_name": "X", "Öffnungszeiten": "Montag 09:00-21:00; Dienstag 09:00-21:00; Mittwoch 09:00-21:00; Donnerstag 09:00-21:00; Freitag 09:00-21:00; Samstag 09:00-21:00; Sonntag 09:00-21:00" }, "geometry": { "type": "Point", "coordinates": [ 7.598322992498138, 51.943354562867285 ] } },
{ "type": "Feature", "properties": { "Lfdnr": 5.0, "Name": "Domplatz", "Barrierefrei": "Nein", "Rechtswert": 405597.0, "Hochwert": 5757725.0, "Gv_name": "X", "Öffnungszeiten": "Montag,  Dienstag,  Mittwoch 05:00-16:00; Donnerstag , Freitag , Samstag 05:00-16:00 " }, "geometry": { "type": "Point", "coordinates": [ 7.626001709448929, 51.96219469106461 ] } },
{ "type": "Feature", "properties": { "Lfdnr": 11.0, "Name": "Schlossplatz", "Barrierefrei": "Ja", "Rechtswert": 404959.0, "Hochwert": 5758053.0, "Gv_name": "X", "Öffnungszeiten": "Montag 10:00-21:00; Dienstag 10:00-21:00; Mittwoch 10:00-21:00; Donnerstag 10:00-21:00; Freitag 10:00-21:00; Samstag 10:00-21:00; Sonntag 10:00-21:00" }, "geometry": { "type": "Point", "coordinates": [ 7.6166280148093, 51.965034184980098 ] } },
{ "type": "Feature", "properties": { "Lfdnr": 16.0, "Name": "Stadthaus 1 / innen", "Barrierefrei": "Ja", "Rechtswert": 405838.0, "Hochwert": 5757652.0, "Gv_name": "X", "Öffnungszeiten": "Montag 10:00-18:00; Dienstag 10:00-18:00; Mittwoch 10:00-18:00; Donnerstag 10:00-18:00; Freitag 10:00-18:00; Samstag 10:00-18:00" }, "geometry": { "type": "Point", "coordinates": [ 7.629528296747328, 51.961579404477781 ] } },
{ "type": "Feature", "properties": { "Lfdnr": 81.0, "Name": "Der gute Bäcker Krimphove", "Barrierefrei": "Ja", "Rechtswert": 406178.0, "Hochwert": 5757376.0, "Gv_name": "NET_TOI", "Öffnungszeiten": "Montag 06:00-18:00; Dienstag 06:00-18:00; Mittwoch 06:00-18:00; Donnerstag 06:00-18:00; Freitag 06:00-18:00" }, "geometry": { "type": "Point", "coordinates": [ 7.634550660303273, 51.959156068163807 ] } },
{ "type": "Feature", "properties": { "Lfdnr": 66.0, "Name": "Pauls Cafe und mehr", "Barrierefrei": "Ja", "Rechtswert": 406293.0, "Hochwert": 5751148.0, "Gv_name": "NET_TOI", "Öffnungszeiten": "Montag 9:00-18:30; Dienstag 9:00-18:30; Mittwoch 9:00-18:30; Donnerstag 9:00-18:30; Freitag 9:00-18:30; Sonntag 14:00-18:00" }, "geometry": { "type": "Point", "coordinates": [ 7.637919998084865, 51.90319497049925 ] } },
{ "type": "Feature", "properties": { "Lfdnr": 70.0, "Name": "Trattoria Mediterranea da Roberto", "Barrierefrei": "Nein", "Rechtswert": 406447.0, "Hochwert": 5751480.0, "Gv_name": "NET_TOI", "Öffnungszeiten": "Montag 17:00-22:30; Dienstag 17:00-22:30; Donnerstag 17:00-22:30; Freitag 17:00-22:30; Samstag 17:00-22:30; Sonntag 12:00-14:30" }, "geometry": { "type": "Point", "coordinates": [ 7.640067654439441, 51.906205056355596 ] } },
{ "type": "Feature", "properties": { "Lfdnr": 71.0, "Name": "Eiscafe Martini", "Barrierefrei": "Nein", "Rechtswert": 406664.0, "Hochwert": 5751250.0, "Gv_name": "NET_TOI", "Öffnungszeiten": "Montag 10:00-19:00; Dienstag 10:00-19:00; Mittwoch 10:00-19:00; Donnerstag 10:00-19:00; Freitag 10:00-19:00; Samstag 10:00-19:00; Sonntag 10:00-19:00" }, "geometry": { "type": "Point", "coordinates": [ 7.643283414506231, 51.904174082510266 ] } },
{ "type": "Feature", "properties": { "Lfdnr": 73.0, "Name": "SuperBioMarkt", "Barrierefrei": "Nein", "Rechtswert": 406786.0, "Hochwert": 5751235.0, "Gv_name": "NET_TOI", "Öffnungszeiten": "Montag 8:00-19:00; Dienstag 8:00-19:00; Mittwoch 8:00-19:00; Donnerstag 8:00-19:00; Freitag 8:00-19:00; Samstag 8:00-14:00"}, "geometry": { "type": "Point", "coordinates": [ 7.645060307605844, 51.904059679462385 ] } },
{ "type": "Feature", "properties": { "Lfdnr": 78.0, "Name": "Bremer Platz (Hocktoilette)", "Barrierefrei": "Nein", "Rechtswert": 406416.0, "Hochwert": 5757155.0, "Gv_name": "X", "Öffnungszeiten": "Montag 0:00-24:00; Dienstag 0:00-24:00; Mittwoch 0:00-24:00; Donnerstag 0:00-24:00; Freitag 0:00-24:00; Samstag 0:00-24:00; Sonntag 0:00-24:00" }, "geometry": { "type": "Point", "coordinates": [ 7.638073566245409, 51.957209722611267 ] } },
{ "type": "Feature", "properties": { "Lfdnr": 82.0, "Name": "LWL-Museum für Kunst und Kultur", "Barrierefrei": "Ja", "Rechtswert": 405479.0, "Hochwert": 5757662.0, "Gv_name": "NET_TOI", "Öffnungszeiten": "Dienstag 10:00-18:00; Mittwoch 10:00-18:00; Donnerstag 10:00-18:00; Freitag 10:00-18:00; Samstag 10:00-18:00; Sonntag 10:00-18:00" }, "geometry": { "type": "Point", "coordinates": [ 7.624302138786866, 51.961608371445841 ] } },
{ "type": "Feature", "properties": { "Lfdnr": 83.0, "Name": "SuperBioMarkt", "Barrierefrei": "Ja", "Rechtswert": 405324.0, "Hochwert": 5755837.0, "Gv_name": "NET_TOI", "Öffnungszeiten": "Montag 08:00-20:00; Dienstag 08:00-20:00; Mittwoch 07:30-20:00; Donnerstag 08:00-20:00; Freitag 08:00-20:00; Samstag 07:30-20:00" }, "geometry": { "type": "Point", "coordinates": [ 7.622549731596194, 51.945178116427194 ] } },
{ "type": "Feature", "properties": { "Lfdnr": 84.0, "Name": "Spooky's", "Barrierefrei": null, "Rechtswert": 405461.0, "Hochwert": 5756368.0, "Gv_name": "NET_TOI", "Öffnungszeiten": "Montag 17:00-00:00; Dienstag 17:00-01:00; Mittwoch 17:00-01:00; Donnerstag 17:00-01:00; Freitag 17:00-03:00; Samstag 17:00-03:00; Sonntag 17:00-00:00" }, "geometry": { "type": "Point", "coordinates": [ 7.624396296885715, 51.949974279924184 ] } },
{ "type": "Feature", "properties": { "Lfdnr": 86.0, "Name": "Fyal Central", "Barrierefrei": null, "Rechtswert": 405582.0, "Hochwert": 5757638.0, "Gv_name": "NET_TOI", "Öffnungszeiten": "Montag 10:00-23:00; Dienstag 10:00-23:00; Mittwoch 10:00-23:00; Donnerstag 10:00-23:00; Freitag 10:00-00:00; Samstag 10:00-00:00; Sonntag 12:00-18:00" }, "geometry": { "type": "Point", "coordinates": [ 7.625807374821766, 51.961410150552766 ] } },
{ "type": "Feature", "properties": { "Lfdnr": 63.0, "Name": "E-Center Meesenstiege", "Barrierefrei": "Nein", "Rechtswert": 405354.0, "Hochwert": 5751118.0, "Gv_name": "NET_TOI", "Öffnungszeiten": "Montag 7:00-21:00; Dienstag 7:00-21:00; Mittwoch 7:00-21:00; Donnerstag 7:00-21:00; Freitag 7:00-21:00; Samstag 7:00-21:00" }, "geometry": { "type": "Point", "coordinates": [ 7.624283612010501, 51.90276659029179 ] } },
{ "type": "Feature", "properties": { "Lfdnr": 65.0, "Name": "Henriks Restaurant & Kneipe", "Barrierefrei": "Nein", "Rechtswert": 406141.0, "Hochwert": 5751372.0, "Gv_name": "NET_TOI", "Öffnungszeiten": "Dienstag 17:00-22:00; Mittwoch 17:00-22:00; Donnerstag 17:00-22:00; Freitag 17:00-22:00; Samstag 17:00-22:00; Sonntag 12:00-14:00, 17:00-22:00" }, "geometry": { "type": "Point", "coordinates": [ 7.635650265918238, 51.905182820481464 ] } },
{ "type": "Feature", "properties": { "Lfdnr": 68.0, "Name": "Bezirksverwaltung Hiltrup", "Barrierefrei": "Ja", "Rechtswert": 406307.0, "Hochwert": 5751321.0, "Gv_name": "NET_TOI", "Öffnungszeiten": "Montag 8:00-12:00, 14:00-18:00; Dienstag 8:00-12:00; Mittwoch 8:00-12:00; Donnerstag 8:00-12:00, 14:00-18:00; Freitag 8:00-12:00" }, "geometry": { "type": "Point", "coordinates": [ 7.638076398523868, 51.904752346558084 ] } },
{ "type": "Feature", "properties": { "Lfdnr": 69.0, "Name": "Metzgerei Philipp Büning", "Barrierefrei": "Ja", "Rechtswert": 406483.0, "Hochwert": 5751192.0, "Gv_name": "NET_TOI", "Öffnungszeiten": "Montag 9:00-18:00; Dienstag 9:00-18:00; Mittwoch 9:00-18:00; Donnerstag 9:00-18:00; Freitag 9:00-18:00; Samstag 9:00-14:00" }, "geometry": { "type": "Point", "coordinates": [ 7.640668966810853, 51.903622392227462 ] } },
{ "type": "Feature", "properties": { "Lfdnr": 72.0, "Name": "Der gute Bäcker Krimphove", "Barrierefrei": "Ja", "Rechtswert": 406804.0, "Hochwert": 5751276.0, "Gv_name": "NET_TOI", "Öffnungszeiten": "Montag 7:00-18:00; Dienstag 7:00-18:00; Mittwoch 7:00-18:00; Donnerstag 7:00-18:00; Freitag 7:00-18:00; Samstag 7:00-17:00; Sonntag 8:00-17:00" }, "geometry": { "type": "Point", "coordinates": [ 7.645310784914796, 51.904431223025597 ] } },
{ "type": "Feature", "properties": { "Lfdnr": 75.0, "Name": "Der gute Bäcker Krimphove", "Barrierefrei": "Nein", "Rechtswert": 408283.0, "Hochwert": 5751396.0, "Gv_name": "NET_TOI", "Öffnungszeiten": "Montag 6:30-18:00; Dienstag 6:30-18:00; Mittwoch 6:30-18:00; Donnerstag 6:30-18:00; Freitag 6:30-18:00; Samstag 6:30-13:00; Sonntag 7:30-16:30" }, "geometry": { "type": "Point", "coordinates": [ 7.666771127592904, 51.905755314677478 ] } },
{ "type": "Feature", "properties": { "Lfdnr": 79.0, "Name": "Der gute Bäcker Krimphove", "Barrierefrei": "Ja", "Rechtswert": 405730.0, "Hochwert": 5757416.0, "Gv_name": "NET_TOI", "Öffnungszeiten": "Montag 08:00-18:00; Dienstag 08:00-18:00; Mittwoch 08:00-18:00; Donnerstag 08:00-18:00; Freitag 08:00-18:00; Samstag 08:00-18:00" }, "geometry": { "type": "Point", "coordinates": [ 7.628021678598551, 51.959439831145616 ] } },
{ "type": "Feature", "properties": { "Lfdnr": 80.0, "Name": "Der Bunte Vogel", "Barrierefrei": null, "Rechtswert": 406012.0, "Hochwert": 5757646.0, "Gv_name": "NET_TOI", "Öffnungszeiten": "Montag 15:00-01:00; Dienstag 15:00-01:00; Mittwoch 15:00-01:00; Donnerstag 15:00-03:00; Freitag 15:00-03:00" }, "geometry": { "type": "Point", "coordinates": [ 7.632061623943276, 51.96155491577754 ] } },
{ "type": "Feature", "properties": { "Lfdnr": 85.0, "Name": "Mövenpick Hotel Münster", "Barrierefrei": null, "Rechtswert": 404163.0, "Hochwert": 5756984.0, "Gv_name": "NET_TOI", "Öffnungszeiten": "Montag 00:00-24:00; Dienstag 00:00-24:00; Mittwoch 00:00-24:00; Donnerstag 00:00-24:00; Freitag 00:00-24:00; Samstag 00:00-24:00; Sonntag 00:00-24:00" }, "geometry": { "type": "Point", "coordinates": [ 7.605343767924546, 51.955288977611303 ] } },
{ "type": "Feature", "properties": { "Lfdnr": 64.0, "Name": "Begegnungszentrum 37 Grad", "Barrierefrei": "Ja", "Rechtswert": 405512.0, "Hochwert": 5751082.0, "Gv_name": "NET_TOI", "Öffnungszeiten": "Montag 15:00-19:00; Dienstag 15:00-19:00; Mittwoch 15:00-19:00; Donnerstag 15:00-19:00; Freitag 15:00-19:00; Sonntag 15:00-18:00" }, "geometry": { "type": "Point", "coordinates": [ 7.626589359965339, 51.90246982157143 ] } },
{ "type": "Feature", "properties": { "Lfdnr": 74.0, "Name": "Das andere Restaurant", "Barrierefrei": "Nein", "Rechtswert": 408121.0, "Hochwert": 5751389.0, "Gv_name": "NET_TOI", "Öffnungszeiten": "Montag 11:00-14:30, 17:00-21:00; Dienstag 11:00-14:30, 17:00-21:00; Mittwoch 11:00-14:30, 17:00-21:00; Donnerstag 11:00-14:30, 17:00-21:00; Freitag 11:00-14:30, 17:00-21:00; Samstag 11:00-14:30, 17:00-21:00; Sonntag 11:00-14:30, 17:00-21:00" }, "geometry": { "type": "Point", "coordinates": [ 7.664418798582195, 51.905665699236671 ] } },
{ "type": "Feature", "properties": { "Lfdnr": 76.0, "Name": "Emmerbachtreff", "Barrierefrei": "Nein", "Rechtswert": 408792.0, "Hochwert": 5751227.0, "Gv_name": "NET_TOI", "Öffnungszeiten": "" }, "geometry": { "type": "Point", "coordinates": [ 7.674212707045541, 51.904319793398798 ] } },
{ "type": "Feature", "properties": { "Lfdnr": 77.0, "Name": "Onkel Alex", "Barrierefrei": "Ja", "Rechtswert": 406751.0, "Hochwert": 5751275.0, "Gv_name": "NET_TOI", "Öffnungszeiten": "Montag 10.00-18:00; Dienstag 10.00-18:00; Mittwoch 10.00-18:00; Donnerstag 10.00-18:00; Freitag 10.00-18:00" }, "geometry": { "type": "Point", "coordinates": [ 7.644540884771303, 51.904413365855397 ] } }
]
}
